{
  "type": "FeatureCollection",
  "features": [
    {
      "type": "Feature",
      "properties": {
        "norad_id": 66746,
        "name": "TRANSPORTER-15 CJ",
        "group": "last-30-days",
        "lat": -54.37764399306558,
        "lon": -125.16225059012268,
        "alt_km": 520.042644264312,
        "timestamp": "2025-12-19T16:54:42.967712+00:00",
        "meta_object_name": "TRANSPORTER-15 CJ",
        "meta_object_id": "2025-276CJ",
        "meta_epoch": "2025-12-19T04:48:03.204576",
        "meta_mean_motion": 15.17416472,
        "meta_eccentricity": 9.628e-05,
        "meta_inclination": 97.4422,
        "meta_ra_of_asc_node": 64.8535,
        "meta_arg_of_pericenter": 234.0891,
        "meta_mean_anomaly": 126.0254,
        "meta_ephemeris_type": 0,
        "meta_classification_type": "U",
        "meta_norad_cat_id": 66746,
        "meta_element_set_no": 999,
        "meta_rev_at_epoch": 310,
        "meta_bstar": 0.00013979791,
        "meta_mean_motion_dot": 2.728e-05,
        "meta_mean_motion_ddot": 0,
        "tle_line1": "1 66746U 25276CJ  25353.20003709  .00002728  00000+0  13980-3 0  9992",
        "tle_line2": "2 66746  97.4422  64.8535 0000962 234.0891 126.0254 15.17416472  3106"
      },
      "geometry": {
        "type": "Point",
        "coordinates": [
          -125.16225059012268,
          -54.37764399306558
        ]
      }
    },
    {
      "type": "Feature",
      "properties": {
        "norad_id": 66747,
        "name": "TRANSPORTER-15 CK",
        "group": "last-30-days",
        "lat": -60.797397890944644,
        "lon": -128.1722319721524,
        "alt_km": 519.7966680146546,
        "timestamp": "2025-12-19T16:54:42.967723+00:00",
        "meta_object_name": "TRANSPORTER-15 CK",
        "meta_object_id": "2025-276CK",
        "meta_epoch": "2025-12-19T04:46:21.016704",
        "meta_mean_motion": 15.1751112,
        "meta_eccentricity": 0.00011174,
        "meta_inclination": 97.4424,
        "meta_ra_of_asc_node": 64.8559,
        "meta_arg_of_pericenter": 229.4255,
        "meta_mean_anomaly": 130.6881,
        "meta_ephemeris_type": 0,
        "meta_classification_type": "U",
        "meta_norad_cat_id": 66747,
        "meta_element_set_no": 999,
        "meta_rev_at_epoch": 310,
        "meta_bstar": 0.00015724408,
        "meta_mean_motion_dot": 3.086e-05,
        "meta_mean_motion_ddot": 0,
        "tle_line1": "1 66747U 25276CK  25353.19885436  .00003086  00000+0  15724-3 0  9992",
        "tle_line2": "2 66747  97.4424  64.8559 0001117 229.4255 130.6881 15.17511120  3103"
      },
      "geometry": {
        "type": "Point",
        "coordinates": [
          -128.1722319721524,
          -60.797397890944644
        ]
      }
    },
    {
      "type": "Feature",
      "properties": {
        "norad_id": 66748,
        "name": "TRANSPORTER-15 CL",
        "group": "last-30-days",
        "lat": -78.58321811068261,
        "lon": 105.70385800029842,
        "alt_km": 517.1838467071175,
        "timestamp": "2025-12-19T16:54:42.967733+00:00",
        "meta_object_name": "TRANSPORTER-15 CL",
        "meta_object_id": "2025-276CL",
        "meta_epoch": "2025-12-19T04:36:59.478048",
        "meta_mean_motion": 15.18371058,
        "meta_eccentricity": 0.00017479,
        "meta_inclination": 97.4419,
        "meta_ra_of_asc_node": 64.8629,
        "meta_arg_of_pericenter": 238.0951,
        "meta_mean_anomaly": 122.0113,
        "meta_ephemeris_type": 0,
        "meta_classification_type": "U",
        "meta_norad_cat_id": 66748,
        "meta_element_set_no": 999,
        "meta_rev_at_epoch": 310,
        "meta_bstar": 0.00071168177,
        "meta_mean_motion_dot": 0.00014576,
        "meta_mean_motion_ddot": 0,
        "tle_line1": "1 66748U 25276CL  25353.19235507  .00014576  00000+0  71168-3 0  9991",
        "tle_line2": "2 66748  97.4419  64.8629 0001747 238.0951 122.0113 15.18371058  3102"
      },
      "geometry": {
        "type": "Point",
        "coordinates": [
          105.70385800029842,
          -78.58321811068261
        ]
      }
    },
    {
      "type": "Feature",
      "properties": {
        "norad_id": 66749,
        "name": "TRANSPORTER-15 CM",
        "group": "last-30-days",
        "lat": -78.1654552582024,
        "lon": -153.23459007899694,
        "alt_km": 519.1895264152099,
        "timestamp": "2025-12-19T16:54:42.967744+00:00",
        "meta_object_name": "TRANSPORTER-15 CM",
        "meta_object_id": "2025-276CM",
        "meta_epoch": "2025-12-19T04:41:27.553920",
        "meta_mean_motion": 15.17826356,
        "meta_eccentricity": 0.00015228,
        "meta_inclination": 97.4414,
        "meta_ra_of_asc_node": 64.8562,
        "meta_arg_of_pericenter": 204.9377,
        "meta_mean_anomaly": 155.1783,
        "meta_ephemeris_type": 0,
        "meta_classification_type": "U",
        "meta_norad_cat_id": 66749,
        "meta_element_set_no": 999,
        "meta_rev_at_epoch": 310,
        "meta_bstar": 0.00023078731,
        "meta_mean_motion_dot": 4.602e-05,
        "meta_mean_motion_ddot": 0,
        "tle_line1": "1 66749U 25276CM  25353.19545780  .00004602  00000+0  23079-3 0  9996",
        "tle_line2": "2 66749  97.4414  64.8562 0001522 204.9377 155.1783 15.17826356  3104"
      },
      "geometry": {
        "type": "Point",
        "coordinates": [
          -153.23459007899694,
          -78.1654552582024
        ]
      }
    },
    {
      "type": "Feature",
      "properties": {
        "norad_id": 66750,
        "name": "TRANSPORTER-15 CN",
        "group": "last-30-days",
        "lat": -80.54797858173052,
        "lon": 117.14371944268701,
        "alt_km": 519.8004834938283,
        "timestamp": "2025-12-19T16:54:42.967754+00:00",
        "meta_object_name": "TRANSPORTER-15 CN",
        "meta_object_id": "2025-276CN",
        "meta_epoch": "2025-12-19T04:37:33.885984",
        "meta_mean_motion": 15.17993728,
        "meta_eccentricity": 0.0001772,
        "meta_inclination": 97.4453,
        "meta_ra_of_asc_node": 64.8727,
        "meta_arg_of_pericenter": 161.2687,
        "meta_mean_anomaly": 198.8612,
        "meta_ephemeris_type": 0,
        "meta_classification_type": "U",
        "meta_norad_cat_id": 66750,
        "meta_element_set_no": 999,
        "meta_rev_at_epoch": 310,
        "meta_bstar": 0.00017701993,
        "meta_mean_motion_dot": 3.531e-05,
        "meta_mean_motion_ddot": 0,
        "tle_line1": "1 66750U 25276CN  25353.19275331  .00003531  00000+0  17702-3 0  9996",
        "tle_line2": "2 66750  97.4453  64.8727 0001772 161.2687 198.8612 15.17993728  3101"
      },
      "geometry": {
        "type": "Point",
        "coordinates": [
          117.14371944268701,
          -80.54797858173052
        ]
      }
    },
    {
      "type": "Feature",
      "properties": {
        "norad_id": 66751,
        "name": "TRANSPORTER-15 CP",
        "group": "last-30-days",
        "lat": -77.26044941420658,
        "lon": -149.96073326727463,
        "alt_km": 518.7553873248953,
        "timestamp": "2025-12-19T16:54:42.967764+00:00",
        "meta_object_name": "TRANSPORTER-15 CP",
        "meta_object_id": "2025-276CP",
        "meta_epoch": "2025-12-19T03:06:47.688768",
        "meta_mean_motion": 15.17770559,
        "meta_eccentricity": 0.00020774,
        "meta_inclination": 97.4426,
        "meta_ra_of_asc_node": 64.7987,
        "meta_arg_of_pericenter": 225.7997,
        "meta_mean_anomaly": 134.3067,
        "meta_ephemeris_type": 0,
        "meta_classification_type": "U",
        "meta_norad_cat_id": 66751,
        "meta_element_set_no": 999,
        "meta_rev_at_epoch": 309,
        "meta_bstar": 0.00020749376,
        "meta_mean_motion_dot": 4.124e-05,
        "meta_mean_motion_ddot": 0,
        "tle_line1": "1 66751U 25276CP  25353.12971862  .00004124  00000+0  20749-3 0  9996",
        "tle_line2": "2 66751  97.4426  64.7987 0002077 225.7997 134.3067 15.17770559  3090"
      },
      "geometry": {
        "type": "Point",
        "coordinates": [
          -149.96073326727463,
          -77.26044941420658
        ]
      }
    },
    {
      "type": "Feature",
      "properties": {
        "norad_id": 66752,
        "name": "TRANSPORTER-15 CQ",
        "group": "last-30-days",
        "lat": -64.2503636095832,
        "lon": -130.3659012027436,
        "alt_km": 519.2283967792,
        "timestamp": "2025-12-19T16:54:42.967778+00:00",
        "meta_object_name": "TRANSPORTER-15 CQ",
        "meta_object_id": "2025-276CQ",
        "meta_epoch": "2025-12-19T04:45:25.439904",
        "meta_mean_motion": 15.17572552,
        "meta_eccentricity": 0.00017621,
        "meta_inclination": 97.4419,
        "meta_ra_of_asc_node": 64.8601,
        "meta_arg_of_pericenter": 260.592,
        "meta_mean_anomaly": 99.5115,
        "meta_ephemeris_type": 0,
        "meta_classification_type": "U",
        "meta_norad_cat_id": 66752,
        "meta_element_set_no": 999,
        "meta_rev_at_epoch": 310,
        "meta_bstar": 0.0001572997,
        "meta_mean_motion_dot": 3.092e-05,
        "meta_mean_motion_ddot": 0,
        "tle_line1": "1 66752U 25276CQ  25353.19821111  .00003092  00000+0  15730-3 0  9992",
        "tle_line2": "2 66752  97.4419  64.8601 0001762 260.5920  99.5115 15.17572552  3101"
      },
      "geometry": {
        "type": "Point",
        "coordinates": [
          -130.3659012027436,
          -64.2503636095832
        ]
      }
    }
  ]
}